NORAD_CAT_ID,OBJECT_NAME,OBJECT_TYPE,EPOCH,MEAN_MOTION,ECCENTRICITY,INCLINATION,RA_OF_ASC_NODE,ARG_OF_PERICENTER,MEAN_ANOMALY,BSTAR,MEAN_MOTION_DOT,MEAN_MOTION_DDOT,TLE_LINE0,TLE_LINE1,TLE_LINE2,SEMIMAJOR_AXIS,PERIOD,APOGEE,PERIGEE,DECAYED
49752.0,STARLINK-3209,PAYLOAD,2022-08-07 20:16:35,15.08849076,0.0001992,53.2158,259.2583,56.1647,303.9534,0.00015176,2.129e-05,0.0,0 STARLINK-3209,1 49752U 21115AE  22219.84485096  .00002129  00000-0  15176-3 0  9994,2 49752  53.2158 259.2583 0001992  56.1647 303.9534 15.08849076 37934,6917.853,95.437,541.096,538.34,0.0
49752.0,STARLINK-3209,PAYLOAD,2022-08-08 02:38:07,15.08848105,0.0002014,53.2159,258.069,56.6273,303.4912,0.00011634,1.564e-05,0.0,0 STARLINK-3209,1 49752U 21115AE  22220.10981159  .00001564  00000-0  11634-3 0  9993,2 49752  53.2159 258.0690 0002014  56.6273 303.4912 15.08848105 39082,6917.856,95.437,541.114,538.327,0.0
49752.0,STARLINK-3209,PAYLOAD,2022-08-08 08:59:40,15.08841365,0.0001968,53.2166,256.8787,57.4476,302.6706,2.6624e-05,1.36e-06,0.0,0 STARLINK-3209,1 49752U 21115AE  22220.37477723  .00000136  00000-0  26624-4 0  9999,2 49752  53.2166 256.8787 0001968  57.4476 302.6706 15.08841365 38019,6917.876,95.437,541.1030000000002,538.38,0.0
49752.0,STARLINK-3209,PAYLOAD,2022-08-08 13:45:50,15.08841007,0.0001988,53.2166,255.9867,57.332,302.7863,1.9533e-05,2.3e-07,0.0,0 STARLINK-3209,1 49752U 21115AE  22220.57349718  .00000023  00000-0  19533-4 0  9999,2 49752  53.2166 255.9867 0001988  57.3320 302.7863 15.08841007 38048,6917.877,95.437,541.118,538.367,0.0
49752.0,STARLINK-3209,PAYLOAD,2022-08-09 08:50:27,15.08848235,0.0002034,53.2168,252.4188,56.5499,303.5687,6.3937e-05,7.299999999999999e-06,0.0,0 STARLINK-3209,1 49752U 21115AE  22221.36836878  .00000730  00000-0  63937-4 0  9997,2 49752  53.2168 252.4188 0002034  56.5499 303.5687 15.08848235 38165,6917.855,95.437,541.127,538.313,0.0
49752.0,STARLINK-3209,PAYLOAD,2022-08-10 02:19:42,15.08840798,0.0001968,53.2163,249.1483,53.3093,306.8079,-0.00010167,-1.906e-05,0.0,0 STARLINK-3209,1 49752U 21115AE  22222.09701714 -.00001906  00000-0 -10167-3 0  9992,2 49752  53.2163 249.1483 0001968  53.3093 306.8079 15.08840798 39383,6917.878000000002,95.438,541.104,538.382,0.0
49752.0,STARLINK-3209,PAYLOAD,2022-08-10 11:52:01,15.08831986,0.0002038,53.2168,247.3646,55.2084,304.91,1.7642e-05,-7e-08,0.0,0 STARLINK-3209,1 49752U 21115AE  22222.49446103 -.00000007  00000-0  17642-4 0  9990,2 49752  53.2168 247.3646 0002038  55.2084 304.9100 15.08831986 38336,6917.905,95.438,541.18,538.36,0.0
49752.0,STARLINK-3209,PAYLOAD,2022-08-11 03:45:52,15.08842984,0.0001932,53.2153,244.3893,52.9894,307.1275,-6.2035e-05,-1.275e-05,0.0,0 STARLINK-3209,1 49752U 21115AE  22223.15685814 -.00001275  00000-0 -62035-4 0  9993,2 49752  53.2153 244.3893 0001932  52.9894 307.1275 15.08842984 39548,6917.871,95.437,541.073,538.4,0.0
49752.0,STARLINK-3209,PAYLOAD,2022-08-11 10:07:25,15.08839717,0.0001947,53.2158,243.2006,52.0059,308.1109,2.4105e-05,9.5e-07,0.0,0 STARLINK-3209,1 49752U 21115AE  22223.42181739  .00000095  00000-0  24105-4 0  9993,2 49752  53.2158 243.2006 0001947  52.0059 308.1109 15.08839717 38475,6917.880999999999,95.438,541.0930000000002,538.399,0.0
49752.0,STARLINK-3209,PAYLOAD,2022-08-12 05:12:02,15.08840386,0.0001959,53.2157,239.6317,51.9879,308.129,0.00011266,1.505e-05,0.0,0 STARLINK-3209,1 49752U 21115AE  22224.21669574  .00001505  00000-0  11266-3 0  9999,2 49752  53.2157 239.6317 0001959  51.9879 308.1290 15.08840386 39701,6917.879,95.438,541.099,538.389,0.0
49752.0,STARLINK-3209,PAYLOAD,2022-08-12 11:33:35,15.08829884,0.0001883,53.214,238.4418,39.2762,320.8366,6.1051e-06,-1.91e-06,0.0,0 STARLINK-3209,1 49752U 21115AE  22224.48166540 -.00000191  00000-0  61051-5 0  9993,2 49752  53.2140 238.4418 0001883  39.2762 320.8366 15.08829884 38634,6917.911,95.438,541.0790000000002,538.474,0.0
49752.0,STARLINK-3209,PAYLOAD,2022-08-12 17:55:08,15.08826941,0.0001851999999999,53.2141,237.2528,45.3607,314.7536,4.1541e-05,3.73e-06,0.0,0 STARLINK-3209,1 49752U 21115AE  22224.74662854  .00000373  00000-0  41541-4 0  9993,2 49752  53.2141 237.2528 0001852  45.3607 314.7536 15.08826941 38672,6917.92,95.438,541.067,538.504,0.0
49752.0,STARLINK-3209,PAYLOAD,2022-08-13 12:59:46,15.08833511,0.0001963,53.2154,233.6845,52.3838,307.7332,7.5411e-06,-1.68e-06,0.0,0 STARLINK-3209,1 49752U 21115AE  22225.54150902 -.00000168  00000-0  75411-5 0  9995,2 49752  53.2154 233.6845 0001963  52.3838 307.7332 15.08833511 38795,6917.9,95.438,541.123,538.4069999999998,0.0
49752.0,STARLINK-3209,PAYLOAD,2022-08-13 14:35:09,15.08833464,0.0002026,53.2149,233.3875,55.5746,304.5437,1.6535e-05,-2.5e-07,0.0,0 STARLINK-3209,1 49752U 21115AE  22225.60774957 -.00000025  00000-0  16535-4 0  9997,2 49752  53.2149 233.3875 0002026  55.5746 304.5437 15.08833464 38803,6917.9,95.438,541.1669999999998,538.364,0.0
49752.0,STARLINK-3209,PAYLOAD,2022-08-14 11:15:10,15.08839458,0.0002039,53.2156,229.5213,53.1931,306.9248,1.9362e-05,2e-07,0.0,0 STARLINK-3209,1 49752U 21115AE  22226.46886823  .00000020  00000-0  19362-4 0  9993,2 49752  53.2156 229.5213 0002039  53.1931 306.9248 15.08839458 40042,6917.882,95.438,541.158,538.336,0.0
49752.0,STARLINK-3209,PAYLOAD,2022-08-15 11:05:57,15.08840384,0.0002091,53.2157,225.0607,53.8709,306.2476,0.000137,1.893e-05,0.0,0 STARLINK-3209,1 49752U 21115AE  22227.46246902  .00001893  00000-0  13700-3 0  9990,2 49752  53.2157 225.0607 0002091  53.8709 306.2476 15.08840384 39087,6917.879,95.438,541.191,538.298,0.0
49752.0,STARLINK-3209,PAYLOAD,2022-08-16 04:35:11,15.08847403,0.000212,53.2157,221.79,54.2338,305.8852,0.00015085,2.114e-05,0.0,0 STARLINK-3209,1 49752U 21115AE  22228.19110488  .00002114  00000-0  15085-3 0  9995,2 49752  53.2157 221.7900 0002120  54.2338 305.8852 15.08847403 40301,6917.858,95.437,541.189,538.256,0.0
49752.0,STARLINK-3209,PAYLOAD,2022-08-16 09:21:20,15.08847571,0.000214,53.2155,220.8981,54.5897,305.5294,0.00015189,2.13e-05,0.0,0 STARLINK-3209,1 49752U 21115AE  22228.38982467  .00002130  00000-0  15189-3 0  9993,2 49752  53.2155 220.8981 0002140  54.5897 305.5294 15.08847571 39225,6917.857,95.437,541.203,538.242,0.0
49752.0,STARLINK-3209,PAYLOAD,2022-08-17 06:01:22,15.08837812,0.0002143,53.2159,217.0301,59.2411,300.8792,1.8426e-05,5e-08,0.0,0 STARLINK-3209,1 49752U 21115AE  22229.25095375  .00000005  00000-0  18426-4 0  9990,2 49752  53.2159 217.0301 0002143  59.2411 300.8792 15.08837812 40466,6917.887,95.438,541.235,538.27,0.0
49752.0,STARLINK-3209,PAYLOAD,2022-08-17 09:12:08,15.0883829,0.0002154,53.2158,216.4359,58.3168,301.8034,1.6972e-05,-1.8e-07,0.0,0 STARLINK-3209,1 49752U 21115AE  22229.38343345 -.00000018  00000-0  16972-4 0  9996,2 49752  53.2158 216.4359 0002154  58.3168 301.8034 15.08838290 39371,6917.886,95.438,541.241,538.261,0.0
49752.0,STARLINK-3209,PAYLOAD,2022-08-18 05:52:08,15.08851614,0.0002179,53.2157,212.5711,54.8766,305.243,6.9371e-05,8.16e-06,0.0,0 STARLINK-3209,1 49752U 21115AE  22230.24454302  .00000816  00000-0  69371-4 0  9995,2 49752  53.2157 212.5711 0002179  54.8766 305.2430 15.08851614 40613,6917.845,95.437,541.217,538.202,0.0
49752.0,STARLINK-3209,PAYLOAD,2022-08-18 09:02:54,15.08851758,0.0002185,53.2158,211.9763,56.242,303.878,9.9182e-05,1.291e-05,0.0,0 STARLINK-3209,1 49752U 21115AE  22230.37702187  .00001291  00000-0  99182-4 0  9997,2 49752  53.2158 211.9763 0002185  56.2420 303.8780 15.08851758 39523,6917.844,95.437,541.221,538.198,0.0
49752.0,STARLINK-3209,PAYLOAD,2022-08-18 15:24:28,15.08837034,0.0002449,53.2156,210.7847,55.0295,305.0927,3.6856e-05,2.98e-06,0.0,0 STARLINK-3209,1 49752U 21115AE  22230.64199242  .00000298  00000-0  36856-4 0  9994,2 49752  53.2156 210.7847 0002449  55.0295 305.0927 15.08837034 39563,6917.889,95.438,541.4490000000002,538.06,0.0
49752.0,STARLINK-3209,PAYLOAD,2022-08-19 05:42:56,15.08841641,0.000214,53.2152,208.1107,58.1351,301.9849,0.00010556,1.392e-05,0.0,0 STARLINK-3209,1 49752U 21115AE  22231.23814941  .00001392  00000-0  10556-3 0  9994,2 49752  53.2152 208.1107 0002140  58.1351 301.9849 15.08841641 39651,6917.875,95.437,541.221,538.26,0.0
49752.0,STARLINK-3209,PAYLOAD,2022-08-20 05:33:43,15.0883445,0.0002088,53.2151,203.6502,55.4275,304.6914,-0.00010476,-1.955e-05,0.0,0 STARLINK-3209,1 49752U 21115AE  22232.23175371 -.00001955  00000-0 -10476-3 0  9990,2 49752  53.2151 203.6502 0002088  55.4275 304.6914 15.08834450 39805,6917.897,95.438,541.207,538.318,0.0
49752.0,STARLINK-3209,PAYLOAD,2022-08-20 15:06:02,15.08833573,0.0002162,53.2149,201.8659,57.8466,302.2736,-6.9884e-05,-1.4e-05,0.0,0 STARLINK-3209,1 49752U 21115AE  22232.62919593 -.00001400  00000-0 -69884-4 0  9998,2 49752  53.2149 201.8659 0002162  57.8466 302.2736 15.08833573 39863,6917.9,95.438,541.261,538.269,0.0
49752.0,STARLINK-3209,PAYLOAD,2022-08-21 10:10:40,15.08838974,0.0002131999999999,53.216,198.2974,56.9263,303.1934,7.529100000000001e-05,9.1e-06,0.0,0 STARLINK-3209,1 49752U 21115AE  22233.42407758  .00000910  00000-0  75291-4 0  9994,2 49752  53.2160 198.2974 0002132  56.9263 303.1934 15.08838974 39980,6917.884,95.438,541.2230000000002,538.274,0.0
49752.0,STARLINK-3209,PAYLOAD,2022-08-21 14:56:49,15.08840342,0.0002131999999999,53.2162,197.4053,57.433,302.6867,9.3764e-05,1.204e-05,0.0,0 STARLINK-3209,1 49752U 21115AE  22233.62279643  .00001204  00000-0  93764-4 0  9998,2 49752  53.2162 197.4053 0002132  57.4330 302.6867 15.08840342 40019,6917.879,95.438,541.219,538.269,0.0
49752.0,STARLINK-3209,PAYLOAD,2022-08-22 08:26:03,15.08843439,0.0002156,53.2162,194.1346,58.1198,302.0004,0.00021224,3.092e-05,0.0,0 STARLINK-3209,1 49752U 21115AE  22234.35143336  .00003092  00000-0  21224-3 0  9996,2 49752  53.2162 194.1346 0002156  58.1198 302.0004 15.08843439 40123,6917.87,95.437,541.226,538.243,0.0
